{
  "type": "FeatureCollection",
  "features": [
    {
      "type": "Feature",
      "properties": {
        "norad_id": 33972,
        "name": "COSMOS 2251 DEB",
        "group": "cosmos-2251-debris",
        "lat": 28.741946929918967,
        "lon": -3.7036633278220648,
        "alt_km": 850.5181740254593,
        "timestamp": "2025-12-15T14:57:58.205204+00:00",
        "meta_object_name": "COSMOS 2251 DEB",
        "meta_object_id": "1993-036FF",
        "meta_epoch": "2025-12-14T21:51:20.079648",
        "meta_mean_motion": 14.36241441,
        "meta_eccentricity": 0.01233925,
        "meta_inclination": 73.9944,
        "meta_ra_of_asc_node": 186.6661,
        "meta_arg_of_pericenter": 353.9675,
        "meta_mean_anomaly": 70.6039,
        "meta_ephemeris_type": 0,
        "meta_classification_type": "U",
        "meta_norad_cat_id": 33972,
        "meta_element_set_no": 999,
        "meta_rev_at_epoch": 87105,
        "meta_bstar": 0.00088550662,
        "meta_mean_motion_dot": 2.793e-05,
        "meta_mean_motion_ddot": 0,
        "tle_line1": "1 33972U 93036FF  25348.91064907  .00002793  00000+0  88551-3 0  9993",
        "tle_line2": "2 33972  73.9944 186.6661 0123392 353.9675  70.6039 14.36241441871050"
      },
      "geometry": {
        "type": "Point",
        "coordinates": [
          -3.7036633278220648,
          28.741946929918967
        ]
      }
    },
    {
      "type": "Feature",
      "properties": {
        "norad_id": 33973,
        "name": "COSMOS 2251 DEB",
        "group": "cosmos-2251-debris",
        "lat": -4.366349471746804,
        "lon": 96.25445339003673,
        "alt_km": 738.0197609560164,
        "timestamp": "2025-12-15T14:57:58.205213+00:00",
        "meta_object_name": "COSMOS 2251 DEB",
        "meta_object_id": "1993-036FG",
        "meta_epoch": "2025-12-14T17:55:57.692928",
        "meta_mean_motion": 14.45393336,
        "meta_eccentricity": 0.00473696,
        "meta_inclination": 74.0085,
        "meta_ra_of_asc_node": 99.1448,
        "meta_arg_of_pericenter": 277.1978,
        "meta_mean_anomaly": 199.4389,
        "meta_ephemeris_type": 0,
        "meta_classification_type": "U",
        "meta_norad_cat_id": 33973,
        "meta_element_set_no": 999,
        "meta_rev_at_epoch": 88629,
        "meta_bstar": 0.00018268144,
        "meta_mean_motion_dot": 6.23e-06,
        "meta_mean_motion_ddot": 0,
        "tle_line1": "1 33973U 93036FG  25348.74719552  .00000623  00000+0  18268-3 0  9996",
        "tle_line2": "2 33973  74.0085  99.1448 0047369 277.1978 199.4389 14.45393336886293"
      },
      "geometry": {
        "type": "Point",
        "coordinates": [
          96.25445339003673,
          -4.366349471746804
        ]
      }
    },
    {
      "type": "Feature",
      "properties": {
        "norad_id": 33975,
        "name": "COSMOS 2251 DEB",
        "group": "cosmos-2251-debris",
        "lat": -9.86691646461587,
        "lon": -97.71767948949328,
        "alt_km": 766.1082599105994,
        "timestamp": "2025-12-15T14:57:58.205222+00:00",
        "meta_object_name": "COSMOS 2251 DEB",
        "meta_object_id": "1993-036FJ",
        "meta_epoch": "2025-12-14T22:37:22.649664",
        "meta_mean_motion": 14.00529184,
        "meta_eccentricity": 0.01912538,
        "meta_inclination": 73.8021,
        "meta_ra_of_asc_node": 80.5809,
        "meta_arg_of_pericenter": 213.1379,
        "meta_mean_anomaly": 145.7657,
        "meta_ephemeris_type": 0,
        "meta_classification_type": "U",
        "meta_norad_cat_id": 33975,
        "meta_element_set_no": 999,
        "meta_rev_at_epoch": 85860,
        "meta_bstar": 0.00063338495,
        "meta_mean_motion_dot": 1.076e-05,
        "meta_mean_motion_ddot": 0,
        "tle_line1": "1 33975U 93036FJ  25348.94262326  .00001076  00000+0  63338-3 0  9993",
        "tle_line2": "2 33975  73.8021  80.5809 0191253 213.1379 145.7657 14.00529184858603"
      },
      "geometry": {
        "type": "Point",
        "coordinates": [
          -97.71767948949328,
          -9.86691646461587
        ]
      }
    },
    {
      "type": "Feature",
      "properties": {
        "norad_id": 33980,
        "name": "COSMOS 2251 DEB",
        "group": "cosmos-2251-debris",
        "lat": -74.01013180056556,
        "lon": -35.20305916210514,
        "alt_km": 698.0114404053111,
        "timestamp": "2025-12-15T14:57:58.205232+00:00",
        "meta_object_name": "COSMOS 2251 DEB",
        "meta_object_id": "1993-036FP",
        "meta_epoch": "2025-12-14T15:23:06.211104",
        "meta_mean_motion": 14.58666375,
        "meta_eccentricity": 0.0028586,
        "meta_inclination": 74.022,
        "meta_ra_of_asc_node": 55.7721,
        "meta_arg_of_pericenter": 200.6922,
        "meta_mean_anomaly": 311.805,
        "meta_ephemeris_type": 0,
        "meta_classification_type": "U",
        "meta_norad_cat_id": 33980,
        "meta_element_set_no": 999,
        "meta_rev_at_epoch": 88822,
        "meta_bstar": 0.00064393536,
        "meta_mean_motion_dot": 2.99e-05,
        "meta_mean_motion_ddot": 0,
        "tle_line1": "1 33980U 93036FP  25348.64104411  .00002990  00000+0  64394-3 0  9995",
        "tle_line2": "2 33980  74.0220  55.7721 0028586 200.6922 311.8050 14.58666375888224"
      },
      "geometry": {
        "type": "Point",
        "coordinates": [
          -35.20305916210514,
          -74.01013180056556
        ]
      }
    },
    {
      "type": "Feature",
      "properties": {
        "norad_id": 33982,
        "name": "COSMOS 2251 DEB",
        "group": "cosmos-2251-debris",
        "lat": 36.62932425758971,
        "lon": 162.18396164769453,
        "alt_km": 701.5042171527712,
        "timestamp": "2025-12-15T14:57:58.205240+00:00",
        "meta_object_name": "COSMOS 2251 DEB",
        "meta_object_id": "1993-036FR",
        "meta_epoch": "2025-12-14T19:23:51.689760",
        "meta_mean_motion": 14.60221254,
        "meta_eccentricity": 0.00751304,
        "meta_inclination": 74.071,
        "meta_ra_of_asc_node": 355.9953,
        "meta_arg_of_pericenter": 39.8742,
        "meta_mean_anomaly": 136.466,
        "meta_ephemeris_type": 0,
        "meta_classification_type": "U",
        "meta_norad_cat_id": 33982,
        "meta_element_set_no": 999,
        "meta_rev_at_epoch": 89189,
        "meta_bstar": 0.00044167557,
        "meta_mean_motion_dot": 2.185e-05,
        "meta_mean_motion_ddot": 0,
        "tle_line1": "1 33982U 93036FR  25348.80823715  .00002185  00000+0  44168-3 0  9993",
        "tle_line2": "2 33982  74.0710 355.9953 0075130  39.8742 136.4660 14.60221254891892"
      },
      "geometry": {
        "type": "Point",
        "coordinates": [
          162.18396164769453,
          36.62932425758971
        ]
      }
    },
    {
      "type": "Feature",
      "properties": {
        "norad_id": 33983,
        "name": "COSMOS 2251 DEB",
        "group": "cosmos-2251-debris",
        "lat": -25.09449197543225,
        "lon": 133.93217046426236,
        "alt_km": 728.54601293431,
        "timestamp": "2025-12-15T14:57:58.205250+00:00",
        "meta_object_name": "COSMOS 2251 DEB",
        "meta_object_id": "1993-036FS",
        "meta_epoch": "2025-12-14T21:37:33.108960",
        "meta_mean_motion": 14.50680531,
        "meta_eccentricity": 0.00213141,
        "meta_inclination": 74.0492,
        "meta_ra_of_asc_node": 142.9861,
        "meta_arg_of_pericenter": 245.7957,
        "meta_mean_anomaly": 276.1434,
        "meta_ephemeris_type": 0,
        "meta_classification_type": "U",
        "meta_norad_cat_id": 33983,
        "meta_element_set_no": 999,
        "meta_rev_at_epoch": 88660,
        "meta_bstar": 0.0004932444,
        "meta_mean_motion_dot": 1.916e-05,
        "meta_mean_motion_ddot": 0,
        "tle_line1": "1 33983U 93036FS  25348.90107765  .00001916  00000+0  49324-3 0  9995",
        "tle_line2": "2 33983  74.0492 142.9861 0021314 245.7957 276.1434 14.50680531886603"
      },
      "geometry": {
        "type": "Point",
        "coordinates": [
          133.93217046426236,
          -25.09449197543225
        ]
      }
    },
    {
      "type": "Feature",
      "properties": {
        "norad_id": 33984,
        "name": "COSMOS 2251 DEB",
        "group": "cosmos-2251-debris",
        "lat": -58.66744969509169,
        "lon": -170.3650480260374,
        "alt_km": 672.1475844924926,
        "timestamp": "2025-12-15T14:57:58.205259+00:00",
        "meta_object_name": "COSMOS 2251 DEB",
        "meta_object_id": "1993-036FT",
        "meta_epoch": "2025-12-14T17:22:45.789312",
        "meta_mean_motion": 14.66385523,
        "meta_eccentricity": 0.00230242,
        "meta_inclination": 74.0096,
        "meta_ra_of_asc_node": 343.27,
        "meta_arg_of_pericenter": 180.896,
        "meta_mean_anomaly": 355.2719,
        "meta_ephemeris_type": 0,
        "meta_classification_type": "U",
        "meta_norad_cat_id": 33984,
        "meta_element_set_no": 999,
        "meta_rev_at_epoch": 89095,
        "meta_bstar": 0.00072593631,
        "meta_mean_motion_dot": 3.999e-05,
        "meta_mean_motion_ddot": 0,
        "tle_line1": "1 33984U 93036FT  25348.72414108  .00003999  00000+0  72594-3 0  9996",
        "tle_line2": "2 33984  74.0096 343.2700 0023024 180.8960 355.2719 14.66385523890953"
      },
      "geometry": {
        "type": "Point",
        "coordinates": [
          -170.3650480260374,
          -58.66744969509169
        ]
      }
    }
  ]
}